start=new Date('2023-01-15T00:00:00.000Z').valueOf();
sats=[{"RA_OF_ASC_NODE":"292.5077","BSTAR":"-0.00003787200000","APOAPSIS":"541.345","ARG_OF_PERICENTER":"38.2725","REF_FRAME":"TEME","FILE":"3744835","OBJECT_ID":"2022-001AC","EPOCH":"2023-01-14T12:09:15.768000","ELEMENT_SET_NO":"999","CENTER_NAME":"EARTH","GP_ID":"223001132","COUNTRY_CODE":"US","OBJECT_TYPE":"PAYLOAD","MEAN_MOTION_DOT":"-0.00000891","OBJECT_NAME":"STARLINK-3294","MEAN_MOTION_DDOT":"0.0000000000000","ECCENTRICITY":"0.00023130","EPHEMERIS_TYPE":"0","TIME_SYSTEM":"UTC","CLASSIFICATION_TYPE":"U","TLE_LINE1":"1 50829U 22001AC  23014.50643250 -.00000891  00000-0 -37872-4 0  9995","SITE":"AFETR","INCLINATION":"53.2158","RCS_SIZE":"LARGE","SEMIMAJOR_AXIS":"6917.880","LAUNCH_DATE":"2022-01-06","NORAD_CAT_ID":"50829","MEAN_ELEMENT_THEORY":"SGP4","PERIAPSIS":"538.145","REV_AT_EPOCH":"5803","MEAN_MOTION":"15.08840023","DECAY_DATE":null,"TLE_LINE2":"2 50829  53.2158 292.5077 0002313  38.2725 321.8431 15.08840023 58037","MEAN_ANOMALY":"321.8431","PERIOD":"95.438"},{"TIME_SYSTEM":"UTC","EPHEMERIS_TYPE":"0","MEAN_MOTION_DDOT":"0.0000000000000","ECCENTRICITY":"0.00020740","CLASSIFICATION_TYPE":"U","TLE_LINE1":"1 50830U 22001AD  23014.52391396 -.00000239  00000-0  31125-5 0  9991","INCLINATION":"53.2162","SITE":"AFETR","SEMIMAJOR_AXIS":"6917.905","RCS_SIZE":"LARGE","DECAY_DATE":null,"MEAN_MOTION":"15.08831892","REV_AT_EPOCH":"5790","PERIAPSIS":"538.335","NORAD_CAT_ID":"50830","LAUNCH_DATE":"2022-01-06","MEAN_ELEMENT_THEORY":"SGP4","MEAN_ANOMALY":"322.3840","TLE_LINE2":"2 50830  53.2162 302.4190 0002074  37.7297 322.3840 15.08831892 57902","PERIOD":"95.438","BSTAR":"0.00000311250000","RA_OF_ASC_NODE":"302.4190","REF_FRAME":"TEME","ARG_OF_PERICENTER":"37.7297","APOAPSIS":"541.205","OBJECT_ID":"2022-001AD","FILE":"3744836","ELEMENT_SET_NO":"999","EPOCH":"2023-01-14T12:34:26.166144","CENTER_NAME":"EARTH","COUNTRY_CODE":"US","OBJECT_TYPE":"PAYLOAD","GP_ID":"223001145","OBJECT_NAME":"STARLINK-3278","MEAN_MOTION_DOT":"-0.00000239"},{"PERIAPSIS":"537.939","REV_AT_EPOCH":"5805","NORAD_CAT_ID":"50831","LAUNCH_DATE":"2022-01-06","MEAN_ELEMENT_THEORY":"SGP4","DECAY_DATE":null,"MEAN_MOTION":"15.08851975","PERIOD":"95.437","MEAN_ANOMALY":"302.6980","TLE_LINE2":"2 50831  53.2125 292.1087 0002559  57.4259 302.6980 15.08851975 58054","CLASSIFICATION_TYPE":"U","TLE_LINE1":"1 50831U 22001AE  23014.59571584  .00005016  00000-0  33295-3 0  9993","MEAN_MOTION_DDOT":"0.0000000000000","ECCENTRICITY":"0.00025590","TIME_SYSTEM":"UTC","EPHEMERIS_TYPE":"0","RCS_SIZE":"LARGE","SEMIMAJOR_AXIS":"6917.844","SITE":"AFETR","INCLINATION":"53.2125","GP_ID":"223001149","OBJECT_TYPE":"PAYLOAD","COUNTRY_CODE":"US","CENTER_NAME":"EARTH","MEAN_MOTION_DOT":"0.00005016","OBJECT_NAME":"STARLINK-3299","APOAPSIS":"541.479","REF_FRAME":"TEME","ARG_OF_PERICENTER":"57.4259","BSTAR":"0.00033295000000","RA_OF_ASC_NODE":"292.1087","EPOCH":"2023-01-14T14:17:49.848576","ELEMENT_SET_NO":"999","OBJECT_ID":"2022-001AE","FILE":"3744836"},{"MEAN_MOTION_DOT":"0.00010976","OBJECT_NAME":"STARLINK-3328","CENTER_NAME":"EARTH","GP_ID":"223001290","OBJECT_TYPE":"PAYLOAD","COUNTRY_CODE":"US","OBJECT_ID":"2022-001AF","FILE":"3744836","ELEMENT_SET_NO":"999","EPOCH":"2023-01-14T12:29:07.922976","BSTAR":"0.00070676000000","RA_OF_ASC_NODE":"302.4482","APOAPSIS":"541.009","REF_FRAME":"TEME","ARG_OF_PERICENTER":"40.7452","TLE_LINE2":"2 50832  53.2148 302.4482 0001799  40.7452 319.3675 15.08833647 57881","MEAN_ANOMALY":"319.3675","PERIOD":"95.438","REV_AT_EPOCH":"5788","PERIAPSIS":"538.520","LAUNCH_DATE":"2022-01-06","NORAD_CAT_ID":"50832","MEAN_ELEMENT_THEORY":"SGP4","DECAY_DATE":null,"MEAN_MOTION":"15.08833647","SITE":"AFETR","INCLINATION":"53.2148","RCS_SIZE":"LARGE","SEMIMAJOR_AXIS":"6917.900","MEAN_MOTION_DDOT":"0.0000000000000","ECCENTRICITY":"0.00017990","TIME_SYSTEM":"UTC","EPHEMERIS_TYPE":"0","TLE_LINE1":"1 50832U 22001AF  23014.52023059  .00010976  00000-0  70676-3 0  9991","CLASSIFICATION_TYPE":"U"},{"RA_OF_ASC_NODE":"292.6761","BSTAR":"0.00169760000000","APOAPSIS":"540.643","ARG_OF_PERICENTER":"103.2014","REF_FRAME":"TEME","FILE":"3744837","OBJECT_ID":"2022-001AG","EPOCH":"2023-01-14T11:16:11.466624","ELEMENT_SET_NO":"999","CENTER_NAME":"EARTH","GP_ID":"223001299","OBJECT_TYPE":"PAYLOAD","COUNTRY_CODE":"US","MEAN_MOTION_DOT":"0.00026899","OBJECT_NAME":"STARLINK-3316","MEAN_MOTION_DDOT":"0.0000000000000","ECCENTRICITY":"0.00016950","EPHEMERIS_TYPE":"0","TIME_SYSTEM":"UTC","TLE_LINE1":"1 50833U 22001AG  23014.46957716  .00026899  00000-0  16976-2 0  9994","CLASSIFICATION_TYPE":"U","SITE":"AFETR","INCLINATION":"53.2168","RCS_SIZE":"LARGE","SEMIMAJOR_AXIS":"6917.606","MEAN_ELEMENT_THEORY":"SGP4","LAUNCH_DATE":"2022-01-06","NORAD_CAT_ID":"50833","REV_AT_EPOCH":"5806","PERIAPSIS":"538.298","DECAY_DATE":null,"MEAN_MOTION":"15.08929786","TLE_LINE2":"2 50833  53.2168 292.6761 0001695 103.2014 256.9167 15.08929786 58061","MEAN_ANOMALY":"256.9167","PERIOD":"95.432"},{"OBJECT_NAME":"STARLINK-3331","MEAN_MOTION_DOT":"0.00012676","COUNTRY_CODE":"US","OBJECT_TYPE":"PAYLOAD","GP_ID":"223001373","CENTER_NAME":"EARTH","ELEMENT_SET_NO":"999","EPOCH":"2023-01-14T12:13:15.026880","FILE":"3744841","OBJECT_ID":"2022-001AH","ARG_OF_PERICENTER":"33.3167","REF_FRAME":"TEME","APOAPSIS":"540.961","RA_OF_ASC_NODE":"302.4865","BSTAR":"0.00081274000000","PERIOD":"95.436","TLE_LINE2":"2 50834  53.2160 302.4865 0001833  33.3167 326.7941 15.08857098 57909","MEAN_ANOMALY":"326.7941","MEAN_MOTION":"15.08857098","DECAY_DATE":null,"NORAD_CAT_ID":"50834","LAUNCH_DATE":"2022-01-06","MEAN_ELEMENT_THEORY":"SGP4","PERIAPSIS":"538.425","REV_AT_EPOCH":"5790","SEMIMAJOR_AXIS":"6917.828","RCS_SIZE":"LARGE","INCLINATION":"53.2160","SITE":"AFETR","TLE_LINE1":"1 50834U 22001AH  23014.50920170  .00012676  00000-0  81274-3 0  9996","CLASSIFICATION_TYPE":"U","EPHEMERIS_TYPE":"0","TIME_SYSTEM":"UTC","ECCENTRICITY":"0.00018330","MEAN_MOTION_DDOT":"0.0000000000000"},{"MEAN_MOTION_DDOT":"0.0000000000000","ECCENTRICITY":"0.00014900","EPHEMERIS_TYPE":"0","TIME_SYSTEM":"UTC","CLASSIFICATION_TYPE":"U","TLE_LINE1":"1 50835U 22001AJ  23014.56807579 -.00003951  00000-0 -23040-3 0  9995","SITE":"AFETR","INCLINATION":"53.2178","RCS_SIZE":"LARGE","SEMIMAJOR_AXIS":"6917.940","LAUNCH_DATE":"2022-01-06","NORAD_CAT_ID":"50835","MEAN_ELEMENT_THEORY":"SGP4","PERIAPSIS":"538.774","REV_AT_EPOCH":"5789","DECAY_DATE":null,"MEAN_MOTION":"15.08820438","MEAN_ANOMALY":"298.0281","TLE_LINE2":"2 50835  53.2178 302.2249 0001490  62.0862 298.0281 15.08820438 57897","PERIOD":"95.439","RA_OF_ASC_NODE":"302.2249","BSTAR":"-0.00023040000000","APOAPSIS":"540.836","ARG_OF_PERICENTER":"62.0862","REF_FRAME":"TEME","FILE":"3744845","OBJECT_ID":"2022-001AJ","ELEMENT_SET_NO":"999","EPOCH":"2023-01-14T13:38:01.748256","CENTER_NAME":"EARTH","GP_ID":"223001355","COUNTRY_CODE":"US","OBJECT_TYPE":"PAYLOAD","MEAN_MOTION_DOT":"-0.00003951","OBJECT_NAME":"STARLINK-3310"},{"EPHEMERIS_TYPE":"0","TIME_SYSTEM":"UTC","MEAN_MOTION_DDOT":"0.0000000000000","ECCENTRICITY":"0.00021330","TLE_LINE1":"1 50836U 22001AK  23014.77784121  .00001526  00000-0  11396-3 0  9991","CLASSIFICATION_TYPE":"U","INCLINATION":"53.2144","SITE":"AFETR","SEMIMAJOR_AXIS":"6917.867","RCS_SIZE":"LARGE","MEAN_MOTION":"15.08844534","DECAY_DATE":null,"LAUNCH_DATE":"2022-01-06","MEAN_ELEMENT_THEORY":"SGP4","NORAD_CAT_ID":"50836","REV_AT_EPOCH":"5792","PERIAPSIS":"538.256","MEAN_ANOMALY":"319.8766","TLE_LINE2":"2 50836  53.2144 301.2932 0002133  40.2384 319.8766 15.08844534 57928","PERIOD":"95.437","RA_OF_ASC_NODE":"301.2932","BSTAR":"0.00011396000000","ARG_OF_PERICENTER":"40.2384","REF_FRAME":"TEME","APOAPSIS":"541.207","FILE":"3745238","OBJECT_ID":"2022-001AK","EPOCH":"2023-01-14T18:40:05.480544","ELEMENT_SET_NO":"999","CENTER_NAME":"EARTH","OBJECT_TYPE":"PAYLOAD","COUNTRY_CODE":"US","GP_ID":"223027616","OBJECT_NAME":"STARLINK-3330","MEAN_MOTION_DOT":"0.00001526"},{"RCS_SIZE":"LARGE","SEMIMAJOR_AXIS":"6917.877","SITE":"AFETR","INCLINATION":"53.2130","TLE_LINE1":"1 50837U 22001AL  23014.14211037  .00001350  00000-0  10288-3 0  9998","CLASSIFICATION_TYPE":"U","MEAN_MOTION_DDOT":"0.0000000000000","ECCENTRICITY":"0.00022290","EPHEMERIS_TYPE":"0","TIME_SYSTEM":"UTC","PERIOD":"95.437","TLE_LINE2":"2 50837  53.2130 294.1399 0002229  31.0216 329.0907 15.08841145 57913","MEAN_ANOMALY":"329.0907","MEAN_ELEMENT_THEORY":"SGP4","LAUNCH_DATE":"2022-01-06","NORAD_CAT_ID":"50837","REV_AT_EPOCH":"5791","PERIAPSIS":"538.200","DECAY_DATE":null,"MEAN_MOTION":"15.08841145","ELEMENT_SET_NO":"999","EPOCH":"2023-01-14T03:24:38.335968","FILE":"3744405","OBJECT_ID":"2022-001AL","APOAPSIS":"541.284","ARG_OF_PERICENTER":"31.0216","REF_FRAME":"TEME","RA_OF_ASC_NODE":"294.1399","BSTAR":"0.00010288000000","MEAN_MOTION_DOT":"0.00001350","OBJECT_NAME":"STARLINK-3318","GP_ID":"222992359","OBJECT_TYPE":"PAYLOAD","COUNTRY_CODE":"US","CENTER_NAME":"EARTH"},{"TLE_LINE2":"2 50838  53.2156 303.7482 0003922  85.7391 274.4050 15.10232787 57789","MEAN_ANOMALY":"274.4050","PERIOD":"95.350","MEAN_MOTION":"15.10232787","DECAY_DATE":null,"MEAN_ELEMENT_THEORY":"SGP4","LAUNCH_DATE":"2022-01-06","NORAD_CAT_ID":"50838","REV_AT_EPOCH":"5778","PERIAPSIS":"532.780","INCLINATION":"53.2156","SITE":"AFETR","SEMIMAJOR_AXIS":"6913.626","RCS_SIZE":"LARGE","EPHEMERIS_TYPE":"0","TIME_SYSTEM":"UTC","MEAN_MOTION_DDOT":"0.0000000000000","ECCENTRICITY":"0.00039220","CLASSIFICATION_TYPE":"U","TLE_LINE1":"1 50838U 22001AM  23014.20445745  .00055598  00000-0  33532-2 0  9990","OBJECT_NAME":"STARLINK-3322","MEAN_MOTION_DOT":"0.00055598","CENTER_NAME":"EARTH","OBJECT_TYPE":"PAYLOAD","COUNTRY_CODE":"US","GP_ID":"222992147","FILE":"3744405","OBJECT_ID":"2022-001AM","EPOCH":"2023-01-14T04:54:25.123680","ELEMENT_SET_NO":"999","RA_OF_ASC_NODE":"303.7482","BSTAR":"0.00335320000000","ARG_OF_PERICENTER":"85.7391","REF_FRAME":"TEME","APOAPSIS":"538.203"}];
